STARLINK-35972          
1 66638U 25271X   25358.75138804  .00020059  00000+0  50987-3 0  9992
2 66638  53.1615 130.1170 0000936  77.2586 282.8523 15.39636845  6060
STARLINK-35908          
1 66639U 25271Y   25358.74674530  .00036876  00000+0  92655-3 0  9995
2 66639  53.1607 130.0891 0001137  65.6340 294.4783 15.39648699  6061
STARLINK-35921          
1 66640U 25271Z   25358.69111977  .00063600  00000+0  15862-2 0  9991
2 66640  53.1609 130.4539 0001099  56.3961 303.7148 15.39630060  6052
STARLINK-35923          
1 66641U 25271AA  25358.91974920 -.00370072  00000+0 -83616-2 0  9990
2 66641  53.1617 129.0332 0005280   3.5098 356.5945 15.44015427  6093
STARLINK-35926          
1 66642U 25271AB  25358.91670139  .00033959  00000+0  85602-3 0  9992
2 66642  53.1598 129.0844 0000915  75.3997 250.2469 15.39590190  5960
STARLINK-35918          
1 66643U 25271AC  25358.91670139  .00026116  00000+0  66113-3 0  9996
2 66643  53.1595 129.2386 0001163  81.6065 166.7844 15.39597499  5960
STARLINK-35938          
1 66644U 25271AD  25358.91670139  .00035433  00000+0  89262-3 0  9999
2 66644  53.1598 129.0883 0000936  74.6438 249.1677 15.39588608  5936
SHENZHOU-22             
1 66645U 25272A   25358.88276676  .00016629  00000+0  20600-3 0  9992
2 66645  41.4683 302.9604 0008234 137.9360 222.2112 15.59651715265836
COSMOS 2597 (RODNIK-S *)
1 66647U 25273A   25358.87957101  .00000047  00000+0  26895-3 0  9992
2 66647  82.4994 278.9111 0007596 257.5295 102.4934 12.41952272  3649
COSMOS 2598 (RODNIK-S *)
1 66648U 25273B   25358.85909318  .00000035  00000+0  18088-3 0  9990
2 66648  82.5032 278.9102 0008189 207.9473 152.1168 12.43233613  3644
COSMOS 2599 (RODNIK-S *)
1 66649U 25273C   25358.89157676  .00000066  00000+0  41651-3 0  9993
2 66649  82.5051 278.9384 0006346 245.5289 114.5129 12.41152338  3645
BEE-1000                
1 66650U 25274A   25358.75974334  .00001685  00000+0  17291-3 0  9990
2 66650  97.7405 285.7275 0011078 207.2837 152.7801 14.91700346  4192
