CCSDS_OMM_VERS = 2.0
CREATION_DATE  = 
ORIGINATOR     = 

OBJECT_NAME    = STARLINK-35972
OBJECT_ID      = 2025-271X
CENTER_NAME    = EARTH
REF_FRAME      = TEME
TIME_SYSTEM    = UTC
MEAN_ELEMENT_THEORY = SGP/SGP4

EPOCH          = 2025-12-24T18:01:59.926656
MEAN_MOTION    = 15.39636845
ECCENTRICITY   = .00009362
INCLINATION    = 53.1615
RA_OF_ASC_NODE = 130.1170
ARG_OF_PERICENTER = 77.2586
MEAN_ANOMALY   = 282.8523

EPHEMERIS_TYPE = 0
CLASSIFICATION_TYPE = U
NORAD_CAT_ID   = 66638
ELEMENT_SET_NO = 999
REV_AT_EPOCH   = 606
BSTAR          = .50986556E-3
MEAN_MOTION_DOT = .20059E-3
MEAN_MOTION_DDOT = 0

CCSDS_OMM_VERS = 2.0
CREATION_DATE  = 
ORIGINATOR     = 

OBJECT_NAME    = STARLINK-35908
OBJECT_ID      = 2025-271Y
CENTER_NAME    = EARTH
REF_FRAME      = TEME
TIME_SYSTEM    = UTC
MEAN_ELEMENT_THEORY = SGP/SGP4

EPOCH          = 2025-12-24T17:55:18.793920
MEAN_MOTION    = 15.39648699
ECCENTRICITY   = .00011375
INCLINATION    = 53.1607
RA_OF_ASC_NODE = 130.0891
ARG_OF_PERICENTER = 65.6340
MEAN_ANOMALY   = 294.4783

EPHEMERIS_TYPE = 0
CLASSIFICATION_TYPE = U
NORAD_CAT_ID   = 66639
ELEMENT_SET_NO = 999
REV_AT_EPOCH   = 606
BSTAR          = .92654947E-3
MEAN_MOTION_DOT = .36876E-3
MEAN_MOTION_DDOT = 0

CCSDS_OMM_VERS = 2.0
CREATION_DATE  = 
ORIGINATOR     = 

OBJECT_NAME    = STARLINK-35921
OBJECT_ID      = 2025-271Z
CENTER_NAME    = EARTH
REF_FRAME      = TEME
TIME_SYSTEM    = UTC
MEAN_ELEMENT_THEORY = SGP/SGP4

EPOCH          = 2025-12-24T16:35:12.748128
MEAN_MOTION    = 15.39630060
ECCENTRICITY   = .00010995
INCLINATION    = 53.1609
RA_OF_ASC_NODE = 130.4539
ARG_OF_PERICENTER = 56.3961
MEAN_ANOMALY   = 303.7148

EPHEMERIS_TYPE = 0
CLASSIFICATION_TYPE = U
NORAD_CAT_ID   = 66640
ELEMENT_SET_NO = 999
REV_AT_EPOCH   = 605
BSTAR          = .15862359E-2
MEAN_MOTION_DOT = .636E-3
MEAN_MOTION_DDOT = 0

CCSDS_OMM_VERS = 2.0
CREATION_DATE  = 
ORIGINATOR     = 

OBJECT_NAME    = STARLINK-35923
OBJECT_ID      = 2025-271AA
CENTER_NAME    = EARTH
REF_FRAME      = TEME
TIME_SYSTEM    = UTC
MEAN_ELEMENT_THEORY = SGP/SGP4

EPOCH          = 2025-12-24T22:04:26.330880
MEAN_MOTION    = 15.44015427
ECCENTRICITY   = .00052802
INCLINATION    = 53.1617
RA_OF_ASC_NODE = 129.0332
ARG_OF_PERICENTER = 3.5098
MEAN_ANOMALY   = 356.5945

EPHEMERIS_TYPE = 0
CLASSIFICATION_TYPE = U
NORAD_CAT_ID   = 66641
ELEMENT_SET_NO = 999
REV_AT_EPOCH   = 609
BSTAR          = -.83615599E-2
MEAN_MOTION_DOT = -.370072E-2
MEAN_MOTION_DDOT = 0

CCSDS_OMM_VERS = 2.0
CREATION_DATE  = 
ORIGINATOR     = 

OBJECT_NAME    = STARLINK-35926
OBJECT_ID      = 2025-271AB
CENTER_NAME    = EARTH
REF_FRAME      = TEME
TIME_SYSTEM    = UTC
MEAN_ELEMENT_THEORY = SGP/SGP4

EPOCH          = 2025-12-24T22:00:03.000096
MEAN_MOTION    = 15.39590190
ECCENTRICITY   = .00009152
INCLINATION    = 53.1598
RA_OF_ASC_NODE = 129.0844
ARG_OF_PERICENTER = 75.3997
MEAN_ANOMALY   = 250.2469

EPHEMERIS_TYPE = 0
CLASSIFICATION_TYPE = U
NORAD_CAT_ID   = 66642
ELEMENT_SET_NO = 999
REV_AT_EPOCH   = 596
BSTAR          = .85601802E-3
MEAN_MOTION_DOT = .33959E-3
MEAN_MOTION_DDOT = 0

CCSDS_OMM_VERS = 2.0
CREATION_DATE  = 
ORIGINATOR     = 

OBJECT_NAME    = STARLINK-35918
OBJECT_ID      = 2025-271AC
CENTER_NAME    = EARTH
REF_FRAME      = TEME
TIME_SYSTEM    = UTC
MEAN_ELEMENT_THEORY = SGP/SGP4

EPOCH          = 2025-12-24T22:00:03.000096
MEAN_MOTION    = 15.39597499
ECCENTRICITY   = .00011633
INCLINATION    = 53.1595
RA_OF_ASC_NODE = 129.2386
ARG_OF_PERICENTER = 81.6065
MEAN_ANOMALY   = 166.7844

EPHEMERIS_TYPE = 0
CLASSIFICATION_TYPE = U
NORAD_CAT_ID   = 66643
ELEMENT_SET_NO = 999
REV_AT_EPOCH   = 596
BSTAR          = .66113442E-3
MEAN_MOTION_DOT = .26116E-3
MEAN_MOTION_DDOT = 0

CCSDS_OMM_VERS = 2.0
CREATION_DATE  = 
ORIGINATOR     = 

OBJECT_NAME    = STARLINK-35938
OBJECT_ID      = 2025-271AD
CENTER_NAME    = EARTH
REF_FRAME      = TEME
TIME_SYSTEM    = UTC
MEAN_ELEMENT_THEORY = SGP/SGP4

EPOCH          = 2025-12-24T22:00:03.000096
MEAN_MOTION    = 15.39588608
ECCENTRICITY   = .00009366
INCLINATION    = 53.1598
RA_OF_ASC_NODE = 129.0883
ARG_OF_PERICENTER = 74.6438
MEAN_ANOMALY   = 249.1677

EPHEMERIS_TYPE = 0
CLASSIFICATION_TYPE = U
NORAD_CAT_ID   = 66644
ELEMENT_SET_NO = 999
REV_AT_EPOCH   = 593
BSTAR          = .8926194E-3
MEAN_MOTION_DOT = .35433E-3
MEAN_MOTION_DDOT = 0

CCSDS_OMM_VERS = 2.0
CREATION_DATE  = 
ORIGINATOR     = 

OBJECT_NAME    = SHENZHOU-22
OBJECT_ID      = 2025-272A
CENTER_NAME    = EARTH
REF_FRAME      = TEME
TIME_SYSTEM    = UTC
MEAN_ELEMENT_THEORY = SGP/SGP4

EPOCH          = 2025-12-24T21:11:11.048064
MEAN_MOTION    = 15.59651715
ECCENTRICITY   = .00082343
INCLINATION    = 41.4683
RA_OF_ASC_NODE = 302.9604
ARG_OF_PERICENTER = 137.9360
MEAN_ANOMALY   = 222.2112

EPHEMERIS_TYPE = 0
CLASSIFICATION_TYPE = U
NORAD_CAT_ID   = 66645
ELEMENT_SET_NO = 999
REV_AT_EPOCH   = 26583
BSTAR          = .20600017E-3
MEAN_MOTION_DOT = .16629E-3
MEAN_MOTION_DDOT = 0

CCSDS_OMM_VERS = 2.0
CREATION_DATE  = 
ORIGINATOR     = 

OBJECT_NAME    = COSMOS 2597 (RODNIK-S 22)
OBJECT_ID      = 2025-273A
CENTER_NAME    = EARTH
REF_FRAME      = TEME
TIME_SYSTEM    = UTC
MEAN_ELEMENT_THEORY = SGP/SGP4

EPOCH          = 2025-12-24T21:06:34.935264
MEAN_MOTION    = 12.41952272
ECCENTRICITY   = .00075961
INCLINATION    = 82.4994
RA_OF_ASC_NODE = 278.9111
ARG_OF_PERICENTER = 257.5295
MEAN_ANOMALY   = 102.4934

EPHEMERIS_TYPE = 0
CLASSIFICATION_TYPE = U
NORAD_CAT_ID   = 66647
ELEMENT_SET_NO = 999
REV_AT_EPOCH   = 364
BSTAR          = .26894993E-3
MEAN_MOTION_DOT = .47E-6
MEAN_MOTION_DDOT = 0

CCSDS_OMM_VERS = 2.0
CREATION_DATE  = 
ORIGINATOR     = 

OBJECT_NAME    = COSMOS 2598 (RODNIK-S 23)
OBJECT_ID      = 2025-273B
CENTER_NAME    = EARTH
REF_FRAME      = TEME
TIME_SYSTEM    = UTC
MEAN_ELEMENT_THEORY = SGP/SGP4

EPOCH          = 2025-12-24T20:37:05.650752
MEAN_MOTION    = 12.43233613
ECCENTRICITY   = .00081899
INCLINATION    = 82.5032
RA_OF_ASC_NODE = 278.9102
ARG_OF_PERICENTER = 207.9473
MEAN_ANOMALY   = 152.1168

EPHEMERIS_TYPE = 0
CLASSIFICATION_TYPE = U
NORAD_CAT_ID   = 66648
ELEMENT_SET_NO = 999
REV_AT_EPOCH   = 364
BSTAR          = .18088338E-3
MEAN_MOTION_DOT = .35E-6
MEAN_MOTION_DDOT = 0

CCSDS_OMM_VERS = 2.0
CREATION_DATE  = 
ORIGINATOR     = 

OBJECT_NAME    = COSMOS 2599 (RODNIK-S 24)
OBJECT_ID      = 2025-273C
CENTER_NAME    = EARTH
REF_FRAME      = TEME
TIME_SYSTEM    = UTC
MEAN_ELEMENT_THEORY = SGP/SGP4

EPOCH          = 2025-12-24T21:23:52.232064
MEAN_MOTION    = 12.41152338
ECCENTRICITY   = .00063463
INCLINATION    = 82.5051
RA_OF_ASC_NODE = 278.9384
ARG_OF_PERICENTER = 245.5289
MEAN_ANOMALY   = 114.5129

EPHEMERIS_TYPE = 0
CLASSIFICATION_TYPE = U
NORAD_CAT_ID   = 66649
ELEMENT_SET_NO = 999
REV_AT_EPOCH   = 364
BSTAR          = .4165135E-3
MEAN_MOTION_DOT = .66E-6
MEAN_MOTION_DDOT = 0

CCSDS_OMM_VERS = 2.0
CREATION_DATE  = 
ORIGINATOR     = 

OBJECT_NAME    = BEE-1000
OBJECT_ID      = 2025-274A
CENTER_NAME    = EARTH
REF_FRAME      = TEME
TIME_SYSTEM    = UTC
MEAN_ELEMENT_THEORY = SGP/SGP4

EPOCH          = 2025-12-24T18:14:01.824576
MEAN_MOTION    = 14.91700346
ECCENTRICITY   = .0011078
INCLINATION    = 97.7405
RA_OF_ASC_NODE = 285.7275
ARG_OF_PERICENTER = 207.2837
MEAN_ANOMALY   = 152.7801

EPHEMERIS_TYPE = 0
CLASSIFICATION_TYPE = U
NORAD_CAT_ID   = 66650
ELEMENT_SET_NO = 999
REV_AT_EPOCH   = 419
BSTAR          = .17291328E-3
MEAN_MOTION_DOT = .1685E-4
MEAN_MOTION_DDOT = 0

